[{"OBJECT_NAME":"STARLINK-3249","OBJECT_ID":"2021-115G","EPOCH":"2026-03-09T11:08:50.396352","MEAN_MOTION":15.08815855,"ECCENTRICITY":0.00015532,"INCLINATION":53.2178,"RA_OF_ASC_NODE":160.3234,"ARG_OF_PERICENTER":118.2346,"MEAN_ANOMALY":241.8804,"EPHEMERIS_TYPE":0,"CLASSIFICATION_TYPE":"U","NORAD_CAT_ID":49730,"ELEMENT_SET_NO":999,"REV_AT_EPOCH":23535,"BSTAR":0.00031227537,"MEAN_MOTION_DOT":4.682e-5,"MEAN_MOTION_DDOT":0},{"OBJECT_NAME":"OBJECT E","OBJECT_ID":"2025-013E","EPOCH":"2026-03-09T23:59:52.369152","MEAN_MOTION":15.10347623,"ECCENTRICITY":0.00085591,"INCLINATION":97.6477,"RA_OF_ASC_NODE":238.3736,"ARG_OF_PERICENTER":6.9171,"MEAN_ANOMALY":353.2174,"EPHEMERIS_TYPE":0,"CLASSIFICATION_TYPE":"U","NORAD_CAT_ID":62733,"ELEMENT_SET_NO":999,"REV_AT_EPOCH":6224,"BSTAR":0.00032920786,"MEAN_MOTION_DOT":5.34e-5,"MEAN_MOTION_DDOT":0}]
